STARLINK-30915          
1 58380U 23178G   26068.93187363  .00016525  00000+0  56105-3 0  9995
2 58380  53.1565 270.1940 0000968  62.1565 297.9534 15.30645879131150
TRANSPORTER-10 OBJECT AG
1 59128U 24043AG  26068.92552531  .00009498  00000+0  32170-3 0  9997
2 59128  97.5471 205.7101 0009300 226.5958 133.4509 15.30759727111920
